{
  "norad_id": 56924,
  "name": "STARLINK-5731",
  "history": [
    {
      "epoch": "2026-03-28T22:00:01.999584Z",
      "apogee_km": 493.388043333277,
      "perigee_km": 491.2382794777741,
      "latitude_deg": -0.7030590841739947,
      "longitude_deg": -13.498498314491455,
      "height_km": 491.9680353497205,
      "semi_major_axis_km": 6870.450161405525,
      "eccentricity": 0.00015645,
      "inclination_deg": 43.0052,
      "raan_deg": 322.0904,
      "arg_perigee_deg": 259.3912,
      "mean_anomaly_deg": 281.566,
      "mean_motion_rev_day": 15.24491375
    },
    {
      "epoch": "2026-03-29T04:00:01.999584Z",
      "apogee_km": 492.65286308850773,
      "perigee_km": 490.4449460387814,
      "latitude_deg": 38.43110643148026,
      "longitude_deg": -163.68474843570297,
      "height_km": 494.6291646338476,
      "semi_major_axis_km": 6869.685904563645,
      "eccentricity": 0.0001607,
      "inclination_deg": 43.0057,
      "raan_deg": 320.6831,
      "arg_perigee_deg": 262.9831,
      "mean_anomaly_deg": 211.7417,
      "mean_motion_rev_day": 15.24745783
    },
    {
      "epoch": "2026-03-30T04:00:01.999584Z",
      "apogee_km": 489.3554539857405,
      "perigee_km": 487.47127256605836,
      "latitude_deg": -21.443330257112354,
      "longitude_deg": -87.75239031172897,
      "height_km": 492.599840033406,
      "semi_major_axis_km": 6866.550363275899,
      "eccentricity": 0.0001372,
      "inclination_deg": 42.9988,
      "raan_deg": 315.054,
      "arg_perigee_deg": 251.993,
      "mean_anomaly_deg": 320.1754,
      "mean_motion_rev_day": 15.25790292
    }
  ]
}